{
    "week": 296,
    "satellites": [
        {
            "Name": "BEIDOU-3 M13 (C32)",
            "Line1": "1 43622U 18072A   24343.78793048 -.00000016  00000+0  00000+0 0  9993",
            "Line2": "2 43622  56.1381  81.0635 0005649 290.2157  69.7290  1.86230903 42311",
            "SatelliteNumber": "43622",
            "Classification": "U",
            "LaunchYear": "18",
            "LaunchNumber": "072",
            "PieceOfLaunch": "A",
            "EpochYear": "24",
            "EpochDay": 343.78793048,
            "FirstDerivativeMeanMotion": -1.6e-07,
            "SecondDerivativeMeanMotion": "00000+0",
            "BSTAR": "00000+0",
            "SetNumber": "999",
            "Inclination": 56.1381,
            "RAAN": 81.0635,
            "Eccentricity": 0.0005649,
            "ArgumentOfPerigee": 290.2157,
            "MeanAnomaly": 69.729,
            "MeanMotion": 1.86230903,
            "RevolutionNumber": "4231"
        },
        {
            "Name": "BEIDOU-3 M14 (C33)",
            "Line1": "1 43623U 18072B   24343.65340128 -.00000015  00000+0  00000+0 0  9996",
            "Line2": "2 43623  56.1399  81.0615 0002950 323.5363  36.4494  1.86230867 42305",
            "SatelliteNumber": "43623",
            "Classification": "U",
            "LaunchYear": "18",
            "LaunchNumber": "072",
            "PieceOfLaunch": "B",
            "EpochYear": "24",
            "EpochDay": 343.65340128,
            "FirstDerivativeMeanMotion": -1.5e-07,
            "SecondDerivativeMeanMotion": "00000+0",
            "BSTAR": "00000+0",
            "SetNumber": "999",
            "Inclination": 56.1399,
            "RAAN": 81.0615,
            "Eccentricity": 0.000295,
            "ArgumentOfPerigee": 323.5363,
            "MeanAnomaly": 36.4494,
            "MeanMotion": 1.86230867,
            "RevolutionNumber": "4230"
        },
        {
            "Name": "BEIDOU-3 M16 (C35)",
            "Line1": "1 43647U 18078A   24344.35190322 -.00000061  00000+0  00000+0 0  9996",
            "Line2": "2 43647  54.5797 319.3594 0007042   8.2131 351.7988  1.86232099 41821",
            "SatelliteNumber": "43647",
            "Classification": "U",
            "LaunchYear": "18",
            "LaunchNumber": "078",
            "PieceOfLaunch": "A",
            "EpochYear": "24",
            "EpochDay": 344.35190322,
            "FirstDerivativeMeanMotion": -6.1e-07,
            "SecondDerivativeMeanMotion": "00000+0",
            "BSTAR": "00000+0",
            "SetNumber": "999",
            "Inclination": 54.5797,
            "RAAN": 319.3594,
            "Eccentricity": 0.0007042,
            "ArgumentOfPerigee": 8.2131,
            "MeanAnomaly": 351.7988,
            "MeanMotion": 1.86232099,
            "RevolutionNumber": "4182"
        },
        {
            "Name": "BEIDOU-3 M15 (C34)",
            "Line1": "1 43648U 18078B   24344.48104756 -.00000062  00000+0  00000+0 0  9998",
            "Line2": "2 43648  54.5754 319.3571 0003788   5.0292 354.9748  1.86231983 41848",
            "SatelliteNumber": "43648",
            "Classification": "U",
            "LaunchYear": "18",
            "LaunchNumber": "078",
            "PieceOfLaunch": "B",
            "EpochYear": "24",
            "EpochDay": 344.48104756,
            "FirstDerivativeMeanMotion": -6.2e-07,
            "SecondDerivativeMeanMotion": "00000+0",
            "BSTAR": "00000+0",
            "SetNumber": "999",
            "Inclination": 54.5754,
            "RAAN": 319.3571,
            "Eccentricity": 0.0003788,
            "ArgumentOfPerigee": 5.0292,
            "MeanAnomaly": 354.9748,
            "MeanMotion": 1.86231983,
            "RevolutionNumber": "4184"
        },
        {
            "Name": "BEIDOU-3 G1 (C59)",
            "Line1": "1 43683U 18085A   24344.83482779 -.00000261  00000+0  00000+0 0  9999",
            "Line2": "2 43683   2.6268 103.4344 0001764  62.6627 353.4934  1.00275265 22504",
            "SatelliteNumber": "43683",
            "Classification": "U",
            "LaunchYear": "18",
            "LaunchNumber": "085",
            "PieceOfLaunch": "A",
            "EpochYear": "24",
            "EpochDay": 344.83482779,
            "FirstDerivativeMeanMotion": -2.61e-06,
            "SecondDerivativeMeanMotion": "00000+0",
            "BSTAR": "00000+0",
            "SetNumber": "999",
            "Inclination": 2.6268,
            "RAAN": 103.4344,
            "Eccentricity": 0.0001764,
            "ArgumentOfPerigee": 62.6627,
            "MeanAnomaly": 353.4934,
            "MeanMotion": 1.00275265,
            "RevolutionNumber": "2250"
        },
        {
            "Name": "BEIDOU-3 M17 (C36)",
            "Line1": "1 43706U 18093A   24344.63397962  .00000096  00000+0  00000+0 0  9996",
            "Line2": "2 43706  54.1964 201.1140 0006464 299.6472  60.3718  1.86228150 41215",
            "SatelliteNumber": "43706",
            "Classification": "U",
            "LaunchYear": "18",
            "LaunchNumber": "093",
            "PieceOfLaunch": "A",
            "EpochYear": "24",
            "EpochDay": 344.63397962,
            "FirstDerivativeMeanMotion": 9.6e-07,
            "SecondDerivativeMeanMotion": "00000+0",
            "BSTAR": "00000+0",
            "SetNumber": "999",
            "Inclination": 54.1964,
            "RAAN": 201.114,
            "Eccentricity": 0.0006464,
            "ArgumentOfPerigee": 299.6472,
            "MeanAnomaly": 60.3718,
            "MeanMotion": 1.8622815,
            "RevolutionNumber": "4121"
        },
        {
            "Name": "BEIDOU-3 M18 (C37)",
            "Line1": "1 43707U 18093B   24343.96092666  .00000090  00000+0  00000+0 0  9999",
            "Line2": "2 43707  54.1971 201.1286 0006287 341.3125  18.7466  1.86229698 41190",
            "SatelliteNumber": "43707",
            "Classification": "U",
            "LaunchYear": "18",
            "LaunchNumber": "093",
            "PieceOfLaunch": "B",
            "EpochYear": "24",
            "EpochDay": 343.96092666,
            "FirstDerivativeMeanMotion": 9e-07,
            "SecondDerivativeMeanMotion": "00000+0",
            "BSTAR": "00000+0",
            "SetNumber": "999",
            "Inclination": 54.1971,
            "RAAN": 201.1286,
            "Eccentricity": 0.0006287,
            "ArgumentOfPerigee": 341.3125,
            "MeanAnomaly": 18.7466,
            "MeanMotion": 1.86229698,
            "RevolutionNumber": "4119"
        },
        {
            "Name": "BEIDOU-3 IGSO-1 (C38)",
            "Line1": "1 44204U 19023A   24343.73514140 -.00000223  00000+0  00000+0 0  9996",
            "Line2": "2 44204  57.8983  43.4038 0025030 212.8920 201.6175  1.00248996  1644",
            "SatelliteNumber": "44204",
            "Classification": "U",
            "LaunchYear": "19",
            "LaunchNumber": "023",
            "PieceOfLaunch": "A",
            "EpochYear": "24",
            "EpochDay": 343.7351414,
            "FirstDerivativeMeanMotion": -2.23e-06,
            "SecondDerivativeMeanMotion": "00000+0",
            "BSTAR": "00000+0",
            "SetNumber": "999",
            "Inclination": 57.8983,
            "RAAN": 43.4038,
            "Eccentricity": 0.002503,
            "ArgumentOfPerigee": 212.892,
            "MeanAnomaly": 201.6175,
            "MeanMotion": 1.00248996,
            "RevolutionNumber": "164"
        },
        {
            "Name": "BEIDOU-2 G8 (C01)",
            "Line1": "1 44231U 19027A   24344.83569660 -.00000231  00000+0  00000+0 0  9998",
            "Line2": "2 44231   1.9136  74.7721 0004789 198.8437 250.8756  1.00272413 20524",
            "SatelliteNumber": "44231",
            "Classification": "U",
            "LaunchYear": "19",
            "LaunchNumber": "027",
            "PieceOfLaunch": "A",
            "EpochYear": "24",
            "EpochDay": 344.8356966,
            "FirstDerivativeMeanMotion": -2.31e-06,
            "SecondDerivativeMeanMotion": "00000+0",
            "BSTAR": "00000+0",
            "SetNumber": "999",
            "Inclination": 1.9136,
            "RAAN": 74.7721,
            "Eccentricity": 0.0004789,
            "ArgumentOfPerigee": 198.8437,
            "MeanAnomaly": 250.8756,
            "MeanMotion": 1.00272413,
            "RevolutionNumber": "2052"
        },
        {
            "Name": "BEIDOU-3 IGSO-2 (C39)",
            "Line1": "1 44337U 19035A   24344.90198646 -.00000039  00000+0  00000+0 0  9990",
            "Line2": "2 44337  55.1915 163.7275 0035472 196.4537 161.1824  1.00284479 20107",
            "SatelliteNumber": "44337",
            "Classification": "U",
            "LaunchYear": "19",
            "LaunchNumber": "035",
            "PieceOfLaunch": "A",
            "EpochYear": "24",
            "EpochDay": 344.90198646,
            "FirstDerivativeMeanMotion": -3.9e-07,
            "SecondDerivativeMeanMotion": "00000+0",
            "BSTAR": "00000+0",
            "SetNumber": "999",
            "Inclination": 55.1915,
            "RAAN": 163.7275,
            "Eccentricity": 0.0035472,
            "ArgumentOfPerigee": 196.4537,
            "MeanAnomaly": 161.1824,
            "MeanMotion": 1.00284479,
            "RevolutionNumber": "2010"
        }
    ]
}